NORAD_CAT_ID,OBJECT_NAME,OBJECT_TYPE,EPOCH,MEAN_MOTION,ECCENTRICITY,INCLINATION,RA_OF_ASC_NODE,ARG_OF_PERICENTER,MEAN_ANOMALY,BSTAR,MEAN_MOTION_DOT,MEAN_MOTION_DDOT,TLE_LINE0,TLE_LINE1,TLE_LINE2,SEMIMAJOR_AXIS,PERIOD,APOGEE,PERIGEE,DECAYED
56768.0,STARLINK-6198,PAYLOAD,2023-09-20 21:25:01,15.69933293,0.0003425,69.9981,96.6785,265.8306,94.2498,-1.3999e-05,-1.896e-05,0.0,0 STARLINK-6198,1 56768U 23078B   23263.89237766 -.00001896  00000-0 -13999-4 0  9997,2 56768  69.9981  96.6785 0003425 265.8306  94.2498 15.69933293 17724,6737.225,91.724,361.397,356.782,0.0
56768.0,STARLINK-6198,PAYLOAD,2023-09-21 12:42:32,15.69927605,0.0003551,69.9989,94.8867,269.5131,90.5658,4.6928e-05,5.434e-05,0.0,0 STARLINK-6198,1 56768U 23078B   23264.52954833  .00005434  00000-0  46928-4 0  9997,2 56768  69.9989  94.8867 0003551 269.5131  90.5658 15.69927605 17828,6737.241,91.724,361.499,356.714,0.0
56768.0,STARLINK-6198,PAYLOAD,2023-09-21 18:49:33,15.69933541,0.0003322,69.9988,94.1701,270.7203,89.3612,5.0855e-05,5.909e-05,0.0,0 STARLINK-6198,1 56768U 23078B   23264.78441145  .00005909  00000-0  50855-4 0  9993,2 56768  69.9988  94.1701 0003322 270.7203  89.3612 15.69933541 18123,6737.224,91.724,361.327,356.851,0.0
56768.0,STARLINK-6198,PAYLOAD,2023-09-21 20:21:18,15.69935031,0.0003315,69.9987,93.9909,270.7536,89.3279,5.2139e-05,6.064e-05,0.0,0 STARLINK-6198,1 56768U 23078B   23264.84812737  .00006064  00000-0  52139-4 0  9999,2 56768  69.9987  93.9909 0003315 270.7536  89.3279 15.69935031 17876,6737.22,91.724,361.318,356.851,0.0
56768.0,STARLINK-6198,PAYLOAD,2023-09-22 13:10:35,15.69914619,0.0003286,69.9992,92.0196,270.2668,89.8151,-2.102e-05,-2.738e-05,0.0,0 STARLINK-6198,1 56768U 23078B   23265.54901689 -.00002738  00000-0 -21020-4 0  9993,2 56768  69.9992  92.0196 0003286 270.2668  89.8151 15.69914619 17983,6737.278,91.725,361.357,356.929,0.0
56768.0,STARLINK-6198,PAYLOAD,2023-09-22 16:14:05,15.69919297,0.0003137,69.998,91.6612,265.1146,94.9691,1.7562e-05,1.899e-05,0.0,0 STARLINK-6198,1 56768U 23078B   23265.67645305  .00001899  00000-0  17562-4 0  9998,2 56768  69.9980  91.6612 0003137 265.1146  94.9691 15.69919297 18262,6737.265,91.724,361.243,357.016,0.0
56768.0,STARLINK-6198,PAYLOAD,2023-09-22 20:49:20,15.69921591,0.0003583,69.9986,91.1247,270.759,89.3195,1.6997e-06,-9e-08,0.0,0 STARLINK-6198,1 56768U 23078B   23265.86760073 -.00000009  00000-0  16997-5 0  9994,2 56768  69.9986  91.1247 0003583 270.7590  89.3195 15.69921591 18039,6737.258,91.724,361.537,356.709,0.0
56768.0,STARLINK-6198,PAYLOAD,2023-09-23 13:38:36,15.69928313,0.000359,69.9986,89.1546,271.8818,88.1967,-4.7626e-06,-7.86e-06,0.0,0 STARLINK-6198,1 56768U 23078B   23266.56848145 -.00000786  00000-0 -47626-5 0  9995,2 56768  69.9986  89.1546 0003590 271.8818  88.1967 15.69928313 18146,6737.239,91.724,361.523,356.685,0.0
56768.0,STARLINK-6198,PAYLOAD,2023-09-23 21:17:22,15.69934006,0.0003492,69.9986,88.2589,271.2707,88.8089,1.157e-05,1.179e-05,0.0,0 STARLINK-6198,1 56768U 23078B   23266.88706199  .00001179  00000-0  11570-4 0  9995,2 56768  69.9986  88.2589 0003492 271.2707  88.8089 15.69934006 18457,6737.223,91.724,361.44,356.735,0.0
56768.0,STARLINK-6198,PAYLOAD,2023-09-24 11:03:08,15.6992752,0.0003169,70.0001,86.6464,285.8176,74.267,1.4074e-05,1.48e-05,0.0,0 STARLINK-6198,1 56768U 23078B   23267.46051897  .00001480  00000-0  14074-4 0  9995,2 56768  70.0001  86.6464 0003169 285.8176  74.2670 15.69927520 18542,6737.241,91.724,361.241,356.971,0.0
56768.0,STARLINK-6198,PAYLOAD,2023-09-24 14:06:38,15.69929389,0.0003238,70.0005,86.2875,281.4844,78.5988,2.6782e-05,3.009e-05,0.0,0 STARLINK-6198,1 56768U 23078B   23267.58795091  .00003009  00000-0  26782-4 0  9997,2 56768  70.0005  86.2875 0003238 281.4844  78.5988 15.69929389 18307,6737.236,91.724,361.283,356.919,0.0
56768.0,STARLINK-6198,PAYLOAD,2023-09-24 21:45:24,15.69921249,0.0003501,69.9989,85.3916,267.6555,92.424,1.1429e-06,-7.5e-07,0.0,0 STARLINK-6198,1 56768U 23078B   23267.90653750 -.00000075  00000-0  11429-5 0  9992,2 56768  69.9989  85.3916 0003501 267.6555  92.4240 15.69921249 18357,6737.259,91.724,361.483,356.766,0.0
56768.0,STARLINK-6198,PAYLOAD,2023-09-25 13:02:55,15.69954177,0.0003108,69.9996,83.602,276.4451,83.6391,8.4493e-05,9.971e-05,0.0,0 STARLINK-6198,1 56768U 23078B   23268.54369267  .00009971  00000-0  84493-4 0  9993,2 56768  69.9996  83.6020 0003108 276.4451  83.6391 15.69954177 18454,6737.165,91.722,361.124,356.936,0.0
56768.0,STARLINK-6198,PAYLOAD,2023-09-25 19:09:56,15.69918758,0.0003526,69.9984,82.8841,272.5644,87.5148,-7.0698e-06,-1.063e-05,0.0,0 STARLINK-6198,1 56768U 23078B   23268.79857143 -.00001063  00000-0 -70698-5 0  9994,2 56768  69.9984  82.8841 0003526 272.5644  87.5148 15.69918758 18759,6737.266,91.724,361.507,356.756,0.0
56768.0,STARLINK-6198,PAYLOAD,2023-09-25 20:41:41,15.69917456,0.0003441,69.9987,82.7046,273.8923,86.1879,-9.0843e-06,-1.305e-05,0.0,0 STARLINK-6198,1 56768U 23078B   23268.86228941 -.00001305  00000-0 -90843-5 0  9993,2 56768  69.9987  82.7046 0003441 273.8923  86.1879 15.69917456 18501,6737.27,91.725,361.453,356.817,0.0
56768.0,STARLINK-6198,PAYLOAD,2023-09-26 15:02:43,15.69921387,0.0003413,69.9988,80.554,270.8316,89.2489,-4.7457e-06,-7.83e-06,0.0,0 STARLINK-6198,1 56768U 23078B   23269.62689150 -.00000783  00000-0 -47457-5 0  9993,2 56768  69.9988  80.5540 0003413 270.8316  89.2489 15.69921387 18621,6737.259,91.724,361.423,356.824,0.0
56768.0,STARLINK-6198,PAYLOAD,2023-09-26 21:09:42,15.69942603,0.0003577,69.9976,79.8365,263.4689,96.61,3.3436e-05,3.812e-05,0.0,0 STARLINK-6198,1 56768U 23078B   23269.88174633  .00003812  00000-0  33436-4 0  9991,2 56768  69.9976  79.8365 0003577 263.4689  96.6100 15.69942603 18666,6737.198,91.723,361.473,356.653,0.0
56768.0,STARLINK-6198,PAYLOAD,2023-09-27 04:48:29,15.69921219,0.0003412,69.9988,78.9416,264.0423,96.0384,7.4298e-06,6.81e-06,0.0,0 STARLINK-6198,1 56768U 23078B   23270.20034073  .00000681  00000-0  74298-5 0  9995,2 56768  69.9988  78.9416 0003412 264.0423  96.0384 15.69921219 18979,6737.259,91.724,361.423,356.826,0.0
56768.0,STARLINK-6198,PAYLOAD,2023-09-27 12:27:14,15.69926306,0.0002782,69.9989,78.0457,264.5691,95.5187,-2.4141e-05,-3.114e-05,0.0,0 STARLINK-6198,1 56768U 23078B   23270.51892334 -.00003114  00000-0 -24141-4 0  9998,2 56768  69.9989  78.0457 0002782 264.5691  95.5187 15.69926306 18761,6737.245,91.724,360.984,357.236,0.0
56768.0,STARLINK-6198,PAYLOAD,2023-09-28 14:27:01,15.69940852,0.0003643,69.9989,75.0004,261.3196,98.7587,2.9264e-05,3.31e-05,0.0,0 STARLINK-6198,1 56768U 23078B   23271.60209746  .00003310  00000-0  29264-4 0  9995,2 56768  69.9989  75.0004 0003643 261.3196  98.7587 15.69940852 18938,6737.203,91.723,361.523,356.614,0.0
56768.0,STARLINK-6198,PAYLOAD,2023-09-28 19:02:17,15.69909579,0.0004053,69.9983,74.4599,282.0315,78.0427,-4.0577e-05,-5.087e-05,0.0,0 STARLINK-6198,1 56768U 23078B   23271.79326015 -.00005087  00000-0 -40577-4 0  9999,2 56768  69.9983  74.4599 0004053 282.0315  78.0427 15.69909579 18961,6737.293,91.725,361.888,356.427,0.0
56768.0,STARLINK-6198,PAYLOAD,2023-09-29 13:23:18,15.69930949,0.0003128,70.0005,72.3146,266.9835,93.1003,3.0409e-05,3.446e-05,0.0,0 STARLINK-6198,1 56768U 23078B   23272.55785652  .00003446  00000-0  30409-4 0  9998,2 56768  70.0005  72.3146 0003128 266.9835  93.1003 15.69930949 19081,6737.232,91.724,361.204,356.989,0.0
56768.0,STARLINK-6198,PAYLOAD,2023-09-29 14:55:03,15.69934488,0.0003226,70.0004,72.1351,274.0082,86.0745,4.304e-05,4.968e-05,0.0,0 STARLINK-6198,1 56768U 23078B   23272.62157304  .00004968  00000-0  43040-4 0  9998,2 56768  70.0004  72.1351 0003226 274.0082  86.0745 15.69934488 19355,6737.221,91.724,361.26,356.913,0.0
56768.0,STARLINK-6198,PAYLOAD,2023-09-29 19:30:19,15.69935919,0.000341,69.9999,71.5973,269.7966,90.2839,4.391e-05,5.073e-05,0.0,0 STARLINK-6198,1 56768U 23078B   23272.81272105  .00005073  00000-0  43910-4 0  9990,2 56768  69.9999  71.5973 0003410 269.7966  90.2839 15.69935919 19121,6737.217,91.723,361.38,356.785,0.0
56768.0,STARLINK-6198,PAYLOAD,2023-09-30 18:26:36,15.69936913,0.0003459,70.0006,68.9097,267.5924,92.4875,6.156e-05,7.2e-05,0.0,0 STARLINK-6198,1 56768U 23078B   23273.76847467  .00007200  00000-0  61560-4 0  9999,2 56768  70.0006  68.9097 0003459 267.5924  92.4875 15.69936913 19537,6737.214,91.723,361.41,356.749,0.0
56768.0,STARLINK-6198,PAYLOAD,2023-10-01 11:15:52,15.69934075,0.0003169,70.0012,66.9379,265.1881,94.8953,4.1262e-05,4.753e-05,0.0,0 STARLINK-6198,1 56768U 23078B   23274.46935734  .00004753  00000-0  41262-4 0  9999,2 56768  70.0012  66.9379 0003169 265.1881  94.8953 15.69934075 19641,6737.223,91.724,361.223,356.953,0.0
56768.0,STARLINK-6198,PAYLOAD,2023-10-01 12:47:37,15.69918965,0.0004066,70.0001,66.7593,262.6895,97.3839,-3.2256e-05,-4.09e-05,0.0,0 STARLINK-6198,1 56768U 23078B   23274.53307473 -.00004090  00000-0 -32256-4 0  9999,2 56768  70.0001  66.7593 0004066 262.6895  97.3839 15.69918965 19392,6737.266,91.724,361.87,356.391,0.0
56768.0,STARLINK-6198,PAYLOAD,2023-10-01 18:54:38,15.69917318,0.0004014,70.0002,66.0426,262.3581,97.7159,-2.527e-05,-3.25e-05,0.0,0 STARLINK-6198,1 56768U 23078B   23274.78794300 -.00003250  00000-0 -25270-4 0  9990,2 56768  70.0002  66.0426 0004014 262.3581  97.7159 15.69917318 19696,6737.271,91.725,361.84,356.431,0.0
56768.0,STARLINK-6198,PAYLOAD,2023-10-01 20:26:23,15.6992083,0.0003876,70.0014,65.8641,262.9679,97.1076,4.0259e-06,2.71e-06,0.0,0 STARLINK-6198,1 56768U 23078B   23274.85166058  .00000271  00000-0  40259-5 0  9994,2 56768  70.0014  65.8641 0003876 262.9679  97.1076 15.69920830 19442,6737.261,91.724,361.737,356.514,0.0
56768.0,STARLINK-6198,PAYLOAD,2023-10-02 19:22:40,15.69927139,0.0003646,70.0006,63.1765,274.0157,86.0621,2.25e-05,2.494e-05,0.0,0 STARLINK-6198,1 56768U 23078B   23275.80741165  .00002494  00000-0  22500-4 0  9995,2 56768  70.0006  63.1765 0003646 274.0157  86.0621 15.69927139 19858,6737.242,91.724,361.564,356.651,0.0
